[{"OBJECT_NAME":"STARLINK-35362","OBJECT_ID":"2025-224G","EPOCH":"2026-03-09T05:50:25.715616","MEAN_MOTION":15.3021877,"ECCENTRICITY":0.00012652,"INCLINATION":53.162,"RA_OF_ASC_NODE":13.5923,"ARG_OF_PERICENTER":231.4894,"MEAN_ANOMALY":128.5994,"EPHEMERIS_TYPE":0,"CLASSIFICATION_TYPE":"U","NORAD_CAT_ID":65888,"ELEMENT_SET_NO":999,"REV_AT_EPOCH":2475,"BSTAR":0.0015275517,"MEAN_MOTION_DOT":0.00045184,"MEAN_MOTION_DDOT":0},{"OBJECT_NAME":"CZ-6A DEB","OBJECT_ID":"2024-140PU","EPOCH":"2026-03-09T02:24:11.901600","MEAN_MOTION":14.96529453,"ECCENTRICITY":0.01989751,"INCLINATION":89.1479,"RA_OF_ASC_NODE":289.7131,"ARG_OF_PERICENTER":96.8489,"MEAN_ANOMALY":265.5425,"EPHEMERIS_TYPE":0,"CLASSIFICATION_TYPE":"U","NORAD_CAT_ID":61126,"ELEMENT_SET_NO":999,"REV_AT_EPOCH":8404,"BSTAR":0.00070354239,"MEAN_MOTION_DOT":0.00012037,"MEAN_MOTION_DDOT":0}]
